STARLINK-35968          
1 66636U 25271V   25350.91670139 -.01581442  00000+0 -42384-1 0  9993
2 66636  53.1593 167.2408 0000941 111.5050 255.7458 15.40759422  4919
STARLINK-35953          
1 66637U 25271W   25350.97495159 -.00347183  00000+0 -69103-2 0  9997
2 66637  53.1595 166.9051 0000506  38.6708 321.4336 15.47636222  4867
STARLINK-35972          
1 66638U 25271X   25350.90972368  .00077355  00000+0  13840-2 0  9999
2 66638  53.1590 167.2095 0000801  61.1870 298.9219 15.49333757  4850
STARLINK-35908          
1 66639U 25271Y   25350.90938051  .00073606  00000+0  13179-2 0  9991
2 66639  53.1593 167.2069 0000935  76.8706 283.2407 15.49334153  4851
STARLINK-35921          
1 66640U 25271Z   25350.90903689  .00071047  00000+0  12728-2 0  9998
2 66640  53.1594 167.2047 0001188  76.3934 283.7208 15.49334098  4851
STARLINK-35923          
1 66641U 25271AA  25350.90766298  .00034829  00000+0  63128-3 0  9990
2 66641  53.1595 167.1936 0001253  95.7181 264.3971 15.49318746  4855
STARLINK-35926          
1 66642U 25271AB  25350.97251302  .00052215  00000+0  94000-3 0  9995
2 66642  53.1591 166.8880 0000672  96.8117 263.2969 15.49327481  4829
STARLINK-35918          
1 66643U 25271AC  25350.90869376  .00076211  00000+0  13639-2 0  9995
2 66643  53.1594 167.2025 0001266  80.4253 279.6900 15.49331212  4855
STARLINK-35938          
1 66644U 25271AD  25350.90834931  .00075837  00000+0  13569-2 0  9990
2 66644  53.1592 167.2001 0000672  72.5764 287.5318 15.49339514  4851
SHENZHOU-22             
1 66645U 25272A   25351.00596246  .00019519  00000+0  24376-3 0  9992
2 66645  41.4682 350.8038 0007784  67.2573 292.9088 15.59356604263572
COSMOS 2597 (RODNIK-S *)
1 66647U 25273A   25350.90436495 -.00000008  00000+0 -13357-3 0  9994
2 66647  82.4987 283.8631 0007692 276.8857  83.1347 12.41952004  2654
COSMOS 2598 (RODNIK-S *)
1 66648U 25273B   25350.97257163 -.00000010  00000+0 -14010-3 0  9995
2 66648  82.5025 283.8163 0008040 226.8098 133.2311 12.43233394  2664
COSMOS 2599 (RODNIK-S *)
1 66649U 25273C   25350.91122883 -.00000006  00000+0 -11781-3 0  9997
2 66649  82.5046 283.8822 0006288 268.4204  91.6154 12.41150971  2651
BEE-1000                
1 66650U 25274A   25350.77725991  .00001368  00000+0  14147-3 0  9992
2 66650  97.7395 277.8907 0010569 236.5050 123.5160 14.91675800  3009
2025-274B               
1 66651U 25274B   25350.77593663  .00002261  00000+0  22938-3 0  9992
2 66651  97.7391 277.8911 0010804 235.3801 124.6400 14.91829703  3006
2025-274C               
1 66652U 25274C   25350.77423490  .00002062  00000+0  20919-3 0  9999
2 66652  97.7396 277.8946 0010402 242.4489 117.5673 14.91926096  3001
2025-274D               
1 66653U 25274D   25350.77414974  .00001482  00000+0  15186-3 0  9992
2 66653  97.7393 277.8943 0011311 238.5092 121.5022 14.91927737  3008
JACK E                  
1 66654U 25274E   25350.83892390  .00001855  00000+0  18788-3 0  9997
2 66654  97.7395 277.9637 0011845 240.0867 119.9176 14.92107816  3013
2025-274F               
1 66655U 25274F   25350.77381051 -.00000068  00000+0 -12796-5 0  9990
2 66655  97.7319 277.8939 0005299   8.1600 351.9703 14.91167242  3009
2025-274G               
1 66656U 25274G   25350.70231313  .00002226  00000+0  22323-3 0  9990
2 66656  97.7397 277.8349 0012414 242.2279 117.7681 14.92300513  2992
SPIRONE                 
1 66657U 25274H   25350.76695854  .00002281  00000+0  22761-3 0  9998
2 66657  97.7394 277.9031 0010641 260.6472  99.3544 14.92479822  3004
2025-274J               
1 66658U 25274J   25350.76462765  .00002388  00000+0  23698-3 0  9990
2 66658  97.7393 277.9063 0011144 263.8551  96.1399 14.92650133  3000
JACK K                  
1 66659U 25274K   25350.76213334  .00002480  00000+0  24475-3 0  9994
2 66659  97.7396 277.9101 0011886 265.3222  94.6640 14.92834658  3000
K-HERO                  
1 66660U 25274L   25350.76011767  .00002818  00000+0  27627-3 0  9999
2 66660  97.7401 277.9137 0012490 265.9128  94.0664 14.92985519  3004
SNUGLITE-III            
1 66661U 25274M   25350.75814804  .00002501  00000+0  24493-3 0  9999
2 66661  97.7398 277.9154 0013116 267.2195  92.7523 14.93120538  3006
2025-274N               
1 66662U 25274N   25350.75737684  .00002634  00000+0  25736-3 0  9998
2 66662  97.7397 277.9167 0013544 266.7886  93.1784 14.93174702  3002
KSLV-II R/B             
1 66663U 25274P   25350.70111161  .00006993  00000+0  58876-3 0  9993
2 66663  97.7431 278.0066 0054846 305.8627  53.7508 14.97367588  3006
SOYUZ-MS 28             
1 66664U 25275A   25350.86195802  .00007581  00000+0  14251-3 0  9999
2 66664  51.6308 122.0659 0003178 259.3256 100.7375 15.49626059  1280
STARLINK-35867          
1 66791U 25278A   25350.91670139 -.01080793  00000+0 -75307-2 0  9997
2 66791  42.9986 226.5593 0001610 276.3049 158.4498 15.75940776  3621
STARLINK-35990          
1 66792U 25278B   25350.91670139 -.01088050  00000+0 -75853-2 0  9998
2 66792  42.9985 226.5544 0001691 281.6621 155.0079 15.75944979  3628
STARLINK-36051          
1 66793U 25278C   25350.91670139 -.00834522  00000+0 -58261-2 0  9995
2 66793  42.9987 226.5443 0001933 272.8230 167.9180 15.75663351  3533
STARLINK-36062          
1 66794U 25278D   25350.91670139 -.00939712  00000+0 -66169-2 0  9999
2 66794  42.9984 226.5488 0001836 279.1991 159.5550 15.75759817  3627
STARLINK-36047          
1 66795U 25278E   25350.91670139 -.00649521  00000+0 -44691-2 0  9992
2 66795  42.9987 226.5390 0001671 279.6843 163.0882 15.75494769  3531
STARLINK-35964          
1 66796U 25278F   25350.91670139 -.00937990  00000+0 -50826-2 0  9990
2 66796  42.9929 225.3436 0001591 287.7131 266.1215 15.81492565  3474
STARLINK-36099          
1 66797U 25278G   25350.91670139 -.00272134  00000+0 -18128-2 0  9992
2 66797  42.9988 226.5290 0001790 280.8923 165.8837 15.75204863  3688
STARLINK-36041          
1 66798U 25278H   25350.91670139 -.00236063  00000+0 -15670-2 0  9993
2 66798  42.9986 226.5239 0002050 268.7049 180.0062 15.75181282  3479
STARLINK-36044          
1 66799U 25278J   25350.91670139 -.00158163  00000+0 -10417-2 0  9992
2 66799  42.9987 226.5193 0001772 266.8145 183.8393 15.75129076  3624
STARLINK-35996          
1 66800U 25278K   25350.91670139 -.00020242  00000+0 -12895-3 0  9994
2 66800  42.9986 226.5091 0001729 271.8260 182.6991 15.75044021  3424
STARLINK-36080          
1 66801U 25278L   25350.91670139  .00130549  00000+0  84321-3 0  9998
2 66801  42.9986 226.4849 0002250 260.1611 203.9496 15.74947013  3638
STARLINK-35604          
1 66802U 25278M   25350.91670139 -.00094404  00000+0 -61697-3 0  9991
2 66802  42.9984 226.5144 0001825 281.6789 170.9113 15.75088461  3630
STARLINK-35565          
1 66803U 25278N   25350.91670139 -.00018442  00000+0 -11720-3 0  9992
2 66803  42.9985 226.5046 0001694 267.8075 188.6413 15.75039107  3712
STARLINK-36038          
1 66804U 25278P   25350.91670139  .00112226  00000+0  72648-3 0  9992
2 66804  42.9987 226.4994 0002134 258.9598 199.4146 15.74959742  3636
STARLINK-36049          
1 66805U 25278Q   25350.91670139  .00035966  00000+0  23653-3 0  9990
2 66805  42.9987 226.4899 0001401 273.6833 188.5199 15.75011418  3630
STARLINK-36069          
1 66806U 25278R   25350.91670139  .00050964  00000+0  33339-3 0  9998
2 66806  42.9987 226.4947 0001990 275.0015 185.2927 15.75002347  3427
STARLINK-36000          
1 66807U 25278S   25350.91670139  .00062300  00000+0  40635-3 0  9993
2 66807  42.9986 226.4801 0001474 260.0836 205.9437 15.75001468  3685
STARLINK-36071          
1 66808U 25278T   25350.91670139 -.00023817  00000+0 -15232-3 0  9991
2 66808  42.9987 226.4753 0001646 260.3820 207.5661 15.75046481  3636
STARLINK-35979          
1 66809U 25278U   25350.91670139  .00019515  00000+0  12997-3 0  9995
2 66809  42.9984 226.4609 0001904 270.7152 202.9906 15.75018572  3635
STARLINK-36046          
1 66810U 25278V   25350.91670139  .00018636  00000+0  12424-3 0  9995
2 66810  42.9986 226.4708 0001771 269.5749 200.2960 15.75023685  3406
STARLINK-36045          
1 66811U 25278W   25350.91670139  .00009735  00000+0  66445-4 0  9999
2 66811  42.9983 226.4656 0001444 277.8915 193.8963 15.75026047  3630
STARLINK-36054          
1 66812U 25278X   25350.91670139  .00010372  00000+0  70584-4 0  9998
2 66812  42.9984 226.4557 0001958 266.7564 208.8672 15.75026586  3631
STARLINK-36042          
1 66813U 25278Y   25350.91670139  .00019690  00000+0  13108-3 0  9999
2 66813  42.9986 226.4504 0001844 277.1176 200.4225 15.75022166  3637
STARLINK-35984          
1 66814U 25278Z   25350.91670139  .00016076  00000+0  10764-3 0  9990
2 66814  42.9986 226.4215 0001886 269.7272 219.3159 15.75021237  3719
STARLINK-35985          
1 66815U 25278AA  25350.91670139 -.00005439  00000+0 -32330-4 0  9998
2 66815  42.9987 226.4258 0001852 269.5142 217.6095 15.75029854  3718
STARLINK-36098          
1 66816U 25278AB  25350.91670139  .00016357  00000+0  10944-3 0  9994
2 66816  42.9985 226.4458 0001506 277.6984 201.7484 15.75028037  3470
STARLINK-35995          
1 66817U 25278AC  25350.91670139  .00114527  00000+0  73990-3 0  9993
2 66817  42.9985 226.4359 0002378 280.5137 202.6982 15.74996580  3639
STARLINK-35994          
1 66818U 25278AD  25350.91670139 -.00008852  00000+0 -54584-4 0  9998
2 66818  42.9986 226.4410 0001612 269.4309 211.9400 15.75035836  3633
STARLINK-35989          
1 66819U 25278AE  25350.91670139 -.00156912  00000+0 -10335-2 0  9994
2 66819  42.9985 226.4308 0001950 267.7581 217.4274 15.75123444  3630
KOMPSAT-7               
1 66820U 25279A   25348.94536678  .00002802  00000+0  23617-3 0  9990
2 66820  97.6417 294.7686 0008765 217.2843 142.7773 14.98965885  1985
STARLINK-35966          
1 66821U 25280A   25350.91670139 -.01950122  00000+0 -22752-1 0  9991
2 66821  69.9997 187.0466 0003352 271.5729 334.6713 15.64606602  3569
